EYESAT-1 (AO-27)        
1 22825U 93061C   17324.92427350 -.00000005  00000-0  15789-4 0  9997
2 22825  98.8346 292.5985 0007532 229.9743 130.0779 14.30013836259532
CUTE-1 (CO-55)          
1 27844U 03031E   17325.54172849  .00000076  00000-0  54289-4 0  9995
2 27844  98.6892 332.2578 0008775 250.3700 109.6531 14.22076449746688
CUBESAT XI-IV (CO-57)   
1 27848U 03031J   17324.95095960  .00000055  00000-0  44895-4 0  9990
2 27848  98.6983 331.9988 0008632 263.3362  96.6833 14.21685737746443
CUBESAT XI 5            
1 28895U 05043F   17325.43257776  .00000246  00000-0  56088-4 0  9996
2 28895  97.8823 120.6633 0016989  10.9090 349.2478 14.63474556643481
CUTE-1.7+APD II (CO-65) 
1 32785U 08021C   17325.20068203  .00000331  00000-0  41692-4 0  9998
2 32785  97.5570 342.2301 0013416  14.7211 345.4394 14.88008512518245
COMPASS-1               
1 32787U 08021E   17324.87608102  .00000739  00000-0  76534-4 0  9995
2 32787  97.5458 351.7334 0011920 341.9518  18.1277 14.92817222518870
AAUSAT-II               
1 32788U 08021F   17324.89306088  .00000934  00000-0  92368-4 0  9996
2 32788  97.5435 354.8592 0011034 332.8866  27.1777 14.94112554518971
DELFI-C3 (DO-64)        
1 32789U 08021G   17324.91881601  .00001911  00000-0  13701-3 0  9998
2 32789  97.5400  19.7435 0011328 289.4686  70.5317 15.05488673520347
CANX-2                  
1 32790U 08021H   17325.54609374  .00000372  00000-0  46432-4 0  9993
2 32790  97.5559 340.8361 0014091  15.2056 344.9581 14.87723417518239
SEEDS II (CO-66)        
1 32791U 08021J   17324.61830254  .00000653  00000-0  72380-4 0  9997
2 32791  97.5512 346.5064 0013293 359.5136   0.6067 14.90392141518367
SWISSCUBE               
1 35932U 09051B   17325.36589872  .00000237  00000-0  64580-4 0  9992
2 35932  98.5176 106.9005 0008659 124.6261 235.5753 14.56088086433197
BEESAT                  
1 35933U 09051C   17325.40843768  .00000205  00000-0  57337-4 0  9992
2 35933  98.5214 108.3568 0006702 134.7502 225.4242 14.56199250433308
ITUPSAT 1               
1 35935U 09051E   17324.86515166  .00000170  00000-0  50254-4 0  9993
2 35935  98.5328 108.0568 0009092 132.6836 227.5128 14.55385065433020
TISAT 1                 
1 36799U 10035E   17324.90034157  .00000758  00000-0  83435-4 0  9996
2 36799  98.0808  91.0025 0012743 166.9151 193.2399 14.90605121398928
M-CUBED & EXP-1 PRIME   
1 37855U 11061F   17324.79983628  .00004266  00000-0  22623-3 0  9992
2 37855 101.7138 275.7835 0178723 338.7661  20.6197 15.03761205329852
HORYU 2                 
1 38340U 12025D   17324.95350750  .00000282  00000-0  49603-4 0  9997
2 38340  98.3765 334.4172 0012270 148.5321 211.6623 14.75448118285995
STRAND-1                
1 39090U 13009E   17325.53615849  .00000076  00000-0  42114-4 0  9992
2 39090  98.5374 169.3875 0008938 187.1487 172.9573 14.34996926248047
BRITE-AUSTRIA           
1 39091U 13009F   17325.54406075  .00000016  00000-0  20871-4 0  9993
2 39091  98.5340 168.7333 0010118 195.6210 164.4665 14.35050336248061
UNIBRITE                
1 39092U 13009G   17324.92961042  .00000027  00000-0  24893-4 0  9995
2 39092  98.5352 167.8026 0009107 189.9879 170.1126 14.34924492247941
AIST-2                  
1 39133U 13015D   17325.52351845  .00000371  00000-0  38769-4 0  9998
2 39133  64.8717 148.2818 0036794 255.5402 104.1634 15.04427890251960
SOMP                    
1 39134U 13015E   17324.93783062  .00002464  00000-0  12719-3 0  9994
2 39134  64.8649  80.2400 0031612 240.8186 118.9777 15.18496645252890
BEESAT-3                
1 39135U 13015F   17324.82395159  .00002538  00000-0  13944-3 0  9992
2 39135  64.8707  91.3228 0033347 260.0366  99.6995 15.16138507252668
BEESAT-2                
1 39136U 13015G   17325.11787241  .00001630  00000-0  94587-4 0  9998
2 39136  64.8710  92.6138 0032696 260.3134  99.4298 15.15630547253057
NEE-01 PEGASUS          
1 39151U 13018B   17325.25022500  .00000329  00000-0  50659-4 0  9999
2 39151  97.9818  55.7695 0015794 260.9552  98.9872 14.79811479246764
CUBEBUG-1 (CAPITAN BETO)
1 39153U 13018D   17325.46101762  .00000423  00000-0  62508-4 0  9993
2 39153  97.9846  56.9181 0015727 258.0008 101.9441 14.80288863246854
ESTCUBE 1               
1 39161U 13021C   17325.43364473  .00000251  00000-0  47850-4 0  9995
2 39161  98.0226  49.3426 0009705  11.1722 348.9705 14.71982227243886
POPACS 1                
1 39268U 13055D   17324.69900635  .00004847  00000-0  13633-3 0  9999
2 39268  81.0035 204.6756 0645394 120.0621 246.6186 14.32574987213111
POPACS 2                
1 39269U 13055E   17325.42723952  .00004662  00000-0  13609-3 0  9995
2 39269  81.0171 221.7014 0696462 164.2159 198.2000 14.21077636213628
POPACS 3                
1 39270U 13055F   17325.47081014  .00002161  00000-0  68034-4 0  9993
2 39270  81.0183 231.4625 0721801 193.5289 164.5605 14.13977522212994
ZACUBE-1 (TSHEPISOSAT)  
1 39417U 13066B   17324.93294364  .00000320  00000-0  46705-4 0  9998
2 39417  97.6118 359.4290 0060609 116.5877 244.1565 14.80822447215977
WNISAT-1                
1 39423U 13066H   17325.50206856  .00000154  00000-0  40626-4 0  9999
2 39423  97.6994 300.9869 0174598 306.7785  51.7492 14.52900059212077
TRITON-1                
1 39427U 13066M   17324.94565081  .00000251  00000-0  48265-4 0  9993
2 39427  97.6364 329.7894 0113577 205.9394 153.6093 14.67564407213849
GOMX 1                  
1 39430U 13066Q   17325.50648203  .00000316  00000-0  66979-4 0  9992
2 39430  97.6763 312.6420 0150331 266.2506  92.1495 14.58976534212868
BRITE-PL                
1 39431U 13066R   17324.89512861  .00000167  00000-0  46156-4 0  9993
2 39431  97.7282 288.9155 0202451 351.1225   8.6409 14.46889840211113
HUMSAT-D                
1 39433U 13066T   17324.70117280  .00000814  00000-0  85701-4 0  9999
2 39433  97.6343  23.0533 0032265  58.4152 302.0210 14.91652974217348
EAGLE 2                 
1 39436U 13066W   17325.26491562  .00091946  00000-0  16636-2 0  9997
2 39436  97.7145  80.0494 0007816 235.0476 125.0041 15.49312349220855
CUBEBUG-2 (LO-74)       
1 39440U 13066AA  17324.62651162  .00000340  00000-0  54298-4 0  9991
2 39440  97.6157 347.1257 0081393 151.8854 208.6788 14.75560482215168
NEE-02 KRYSAOR          
1 39441U 13066AB  17325.06282140  .00000195  00000-0  34722-4 0  9995
2 39441  97.6143 346.0168 0082739 154.6244 205.9065 14.74697497215100
FUNCUBE-1 (AO-73)       
1 39444U 13066AE  17325.10417080  .00000397  00000-0  55412-4 0  9999
2 39444  97.6132   0.8484 0059791 112.3227 248.4340 14.81578561214847
UWE-3                   
1 39446U 13066AG  17325.14182597  .00000300  00000-0  46591-4 0  9999
2 39446  97.6124 353.2871 0071473 133.3506 227.3692 14.78093897214384
BRITE-TORONTO           
1 40020U 14033L   17325.52161077  .00000090  00000-0  23951-4 0  9997
2 40020  97.8109 189.0328 0087390 185.4413 174.5851 14.66443314183140
DUCHIFAT-1              
1 40021U 14033M   17325.44414701  .00000915  00000-0  10045-3 0  9999
2 40021  97.9151 238.7988 0013750 138.1485 222.0786 14.90104074186015
FLOCK 1C-10             
1 40023U 14033P   17325.32872516  .00001338  00000-0  14803-3 0  9996
2 40023  97.9183 237.5528 0013021 145.9176 214.2866 14.89005339185881
NANOSATC-BR1            
1 40024U 14033Q   17324.71255470  .00000693  00000-0  78802-4 0  9996
2 40024  97.9099 236.6970 0013000 141.8028 218.4112 14.89396720185840
QB50P1                  
1 40025U 14033R   17324.84426994  .00000542  00000-0  64157-4 0  9993
2 40025  97.9072 235.6282 0013174 144.8726 215.3362 14.88570655185794
FLOCK 1C-7              
1 40026U 14033S   17325.33506495  .00001597  00000-0  17238-3 0  9992
2 40026  97.9184 238.4961 0011764 142.8648 217.3356 14.89747213185947
FLOCK 1C-1              
1 40027U 14033T   17324.75257814  .00000836  00000-0  94649-4 0  9993
2 40027  97.9180 237.2500 0012469 144.6775 215.5315 14.89063908185817
POPSAT-HIP-1            
1 40028U 14033U   17325.49485620  .00000416  00000-0  50883-4 0  9990
2 40028  97.9099 236.6001 0014543 141.2106 219.0114 14.88432875185876
FLOCK 1C-2              
1 40029U 14033V   17324.71243617  .00001256  00000-0  13899-3 0  9991
2 40029  97.9180 237.0549 0014595 142.3434 217.8902 14.89086749185791
FLOCK 1C-4              
1 40031U 14033X   17324.74475284  .00000754  00000-0  86199-4 0  9990
2 40031  97.9177 237.0379 0014823 140.2804 219.9504 14.88928816185782
QB50P2                  
1 40032U 14033Y   17324.80401296  .00000484  00000-0  58550-4 0  9990
2 40032  97.9038 234.5392 0012710 140.1743 220.0409 14.88121874185731
FLOCK 1C-11             
1 40033U 14033Z   17325.31949117  .00000695  00000-0  77210-4 0  9995
2 40033  97.9226 239.4073 0013133 132.5179 227.7150 14.90350383185996
ANTELSAT                
1 40034U 14033AA  17325.52975931  .00000385  00000-0  64867-4 0  9992
2 40034  97.8364 204.3927 0059597 145.5783 214.9309 14.73809035184107
FLOCK 1C-9              
1 40035U 14033AB  17325.30010837  .00000293  00000-0  37011-4 0  9993
2 40035  97.9201 238.0734 0012618 134.8171 225.4069 14.89133819185887
FLOCK 1C-6              
1 40036U 14033AC  17325.30996002  .00000613  00000-0  70686-4 0  9992
2 40036  97.9219 238.3386 0012537 133.8723 226.3555 14.89240754185905
PERSEUS-M2              
1 40037U 14033AD  17325.53129122  .00000243  00000-0  33776-4 0  9997
2 40037  97.9045 233.4116 0015159 145.5018 214.7184 14.86293586185682
FLOCK 1C-5              
1 40038U 14033AE  17325.31925806  .00000834  00000-0  94083-4 0  9991
2 40038  97.9214 238.1199 0014804 132.7974 227.4515 14.89212589185898
PERSEUS-M1              
1 40039U 14033AF  17325.30149672  .00000195  00000-0  28662-4 0  9990
2 40039  97.9049 232.6652 0015057 142.6860 217.5404 14.85916264185606
FLOCK 1C-8              
1 40040U 14033AG  17324.76893168  .00000609  00000-0  67031-4 0  9990
2 40040  97.9244 240.2175 0013576 123.0811 237.1807 14.91170300185967
